{
  "type": "FeatureCollection",
  "features": [
    {
      "type": "Feature",
      "properties": {
        "norad_id": 35711,
        "name": "COSMOS 2251 DEB",
        "group": "cosmos-2251-debris",
        "lat": 72.95157887289965,
        "lon": -81.30136039935907,
        "alt_km": 715.5753657140958,
        "timestamp": "2025-12-18T07:01:54.986128+00:00",
        "meta_object_name": "COSMOS 2251 DEB",
        "meta_object_id": "1993-036AQG",
        "meta_epoch": "2025-12-16T08:43:24.573504",
        "meta_mean_motion": 14.63811457,
        "meta_eccentricity": 0.00855113,
        "meta_inclination": 74.0451,
        "meta_ra_of_asc_node": 213.5058,
        "meta_arg_of_pericenter": 313.6514,
        "meta_mean_anomaly": 45.7584,
        "meta_ephemeris_type": 0,
        "meta_classification_type": "U",
        "meta_norad_cat_id": 35711,
        "meta_element_set_no": 999,
        "meta_rev_at_epoch": 87824,
        "meta_bstar": 0.00016330045,
        "meta_mean_motion_dot": 8.64e-06,
        "meta_mean_motion_ddot": 0,
        "tle_line1": "1 35711U 93036AQG 25350.36347886  .00000864  00000+0  16330-3 0  9991",
        "tle_line2": "2 35711  74.0451 213.5058 0085511 313.6514  45.7584 14.63811457878249"
      },
      "geometry": {
        "type": "Point",
        "coordinates": [
          -81.30136039935907,
          72.95157887289965
        ]
      }
    },
    {
      "type": "Feature",
      "properties": {
        "norad_id": 35716,
        "name": "COSMOS 2251 DEB",
        "group": "cosmos-2251-debris",
        "lat": 73.97363601494632,
        "lon": -88.31854376226225,
        "alt_km": 659.7586612396835,
        "timestamp": "2025-12-18T07:01:54.986138+00:00",
        "meta_object_name": "COSMOS 2251 DEB",
        "meta_object_id": "1993-036AQM",
        "meta_epoch": "2025-12-17T19:10:59.620224",
        "meta_mean_motion": 14.60091999,
        "meta_eccentricity": 0.00889426,
        "meta_inclination": 73.992,
        "meta_ra_of_asc_node": 184.5217,
        "meta_arg_of_pericenter": 24.1822,
        "meta_mean_anomaly": 350.396,
        "meta_ephemeris_type": 0,
        "meta_classification_type": "U",
        "meta_norad_cat_id": 35716,
        "meta_element_set_no": 999,
        "meta_rev_at_epoch": 87701,
        "meta_bstar": 7.2268042e-05,
        "meta_mean_motion_dot": 3.34e-06,
        "meta_mean_motion_ddot": 0,
        "tle_line1": "1 35716U 93036AQM 25351.79930116  .00000334  00000+0  72268-4 0  9993",
        "tle_line2": "2 35716  73.9920 184.5217 0088942  24.1822 350.3960 14.60091999877019"
      },
      "geometry": {
        "type": "Point",
        "coordinates": [
          -88.31854376226225,
          73.97363601494632
        ]
      }
    },
    {
      "type": "Feature",
      "properties": {
        "norad_id": 35717,
        "name": "COSMOS 2251 DEB",
        "group": "cosmos-2251-debris",
        "lat": 31.071370439925563,
        "lon": 17.4871674586912,
        "alt_km": 753.435955353606,
        "timestamp": "2025-12-18T07:01:54.986148+00:00",
        "meta_object_name": "COSMOS 2251 DEB",
        "meta_object_id": "1993-036AQN",
        "meta_epoch": "2025-12-15T21:36:31.335552",
        "meta_mean_motion": 14.38515087,
        "meta_eccentricity": 0.00772191,
        "meta_inclination": 74.1598,
        "meta_ra_of_asc_node": 211.7132,
        "meta_arg_of_pericenter": 70.2705,
        "meta_mean_anomaly": 290.6758,
        "meta_ephemeris_type": 0,
        "meta_classification_type": "U",
        "meta_norad_cat_id": 35717,
        "meta_element_set_no": 999,
        "meta_rev_at_epoch": 74145,
        "meta_bstar": 0.0007891897,
        "meta_mean_motion_dot": 2.473e-05,
        "meta_mean_motion_ddot": 0,
        "tle_line1": "1 35717U 93036AQN 25349.90036268  .00002473  00000+0  78919-3 0  9993",
        "tle_line2": "2 35717  74.1598 211.7132 0077219  70.2705 290.6758 14.38515087741453"
      },
      "geometry": {
        "type": "Point",
        "coordinates": [
          17.4871674586912,
          31.071370439925563
        ]
      }
    },
    {
      "type": "Feature",
      "properties": {
        "norad_id": 35718,
        "name": "COSMOS 2251 DEB",
        "group": "cosmos-2251-debris",
        "lat": 44.416173830940494,
        "lon": -77.070358927252,
        "alt_km": 654.8568831367984,
        "timestamp": "2025-12-18T07:01:54.986159+00:00",
        "meta_object_name": "COSMOS 2251 DEB",
        "meta_object_id": "1993-036AQP",
        "meta_epoch": "2025-12-17T02:38:13.400448",
        "meta_mean_motion": 14.68736376,
        "meta_eccentricity": 0.00104417,
        "meta_inclination": 74.0312,
        "meta_ra_of_asc_node": 121.5128,
        "meta_arg_of_pericenter": 170.1123,
        "meta_mean_anomaly": 190.0255,
        "meta_ephemeris_type": 0,
        "meta_classification_type": "U",
        "meta_norad_cat_id": 35718,
        "meta_element_set_no": 999,
        "meta_rev_at_epoch": 65904,
        "meta_bstar": 0.0013106326,
        "meta_mean_motion_dot": 7.622e-05,
        "meta_mean_motion_ddot": 0,
        "tle_line1": "1 35718U 93036AQP 25351.10987732  .00007622  00000+0  13106-2 0  9997",
        "tle_line2": "2 35718  74.0312 121.5128 0010441 170.1123 190.0255 14.68736376659045"
      },
      "geometry": {
        "type": "Point",
        "coordinates": [
          -77.070358927252,
          44.416173830940494
        ]
      }
    },
    {
      "type": "Feature",
      "properties": {
        "norad_id": 35721,
        "name": "COSMOS 2251 DEB",
        "group": "cosmos-2251-debris",
        "lat": -7.297765082425086,
        "lon": -10.369009849557752,
        "alt_km": 839.92179087576,
        "timestamp": "2025-12-18T07:01:54.986169+00:00",
        "meta_object_name": "COSMOS 2251 DEB",
        "meta_object_id": "1993-036AQS",
        "meta_epoch": "2025-12-09T19:36:39.465216",
        "meta_mean_motion": 14.34317214,
        "meta_eccentricity": 0.01465875,
        "meta_inclination": 73.9489,
        "meta_ra_of_asc_node": 183.1196,
        "meta_arg_of_pericenter": 330.1589,
        "meta_mean_anomaly": 29.126,
        "meta_ephemeris_type": 0,
        "meta_classification_type": "U",
        "meta_norad_cat_id": 35721,
        "meta_element_set_no": 999,
        "meta_rev_at_epoch": 57747,
        "meta_bstar": 0.0018396061,
        "meta_mean_motion_dot": 5.808e-05,
        "meta_mean_motion_ddot": 0,
        "tle_line1": "1 35721U 93036AQS 25343.81712344  .00005808  00000+0  18396-2 0  9995",
        "tle_line2": "2 35721  73.9489 183.1196 0146587 330.1589  29.1260 14.34317214577479"
      },
      "geometry": {
        "type": "Point",
        "coordinates": [
          -10.369009849557752,
          -7.297765082425086
        ]
      }
    },
    {
      "type": "Feature",
      "properties": {
        "norad_id": 35724,
        "name": "COSMOS 2251 DEB",
        "group": "cosmos-2251-debris",
        "lat": -62.14499062895278,
        "lon": 144.91601071427888,
        "alt_km": 745.5953326325971,
        "timestamp": "2025-12-18T07:01:54.986179+00:00",
        "meta_object_name": "COSMOS 2251 DEB",
        "meta_object_id": "1993-036AQV",
        "meta_epoch": "2025-12-17T20:01:42.239424",
        "meta_mean_motion": 14.58210542,
        "meta_eccentricity": 0.00589573,
        "meta_inclination": 74.0327,
        "meta_ra_of_asc_node": 292.9829,
        "meta_arg_of_pericenter": 85.1473,
        "meta_mean_anomaly": 275.642,
        "meta_ephemeris_type": 0,
        "meta_classification_type": "U",
        "meta_norad_cat_id": 35724,
        "meta_element_set_no": 999,
        "meta_rev_at_epoch": 87603,
        "meta_bstar": 0.00022286585,
        "meta_mean_motion_dot": 1.023e-05,
        "meta_mean_motion_ddot": 0,
        "tle_line1": "1 35724U 93036AQV 25351.83451666  .00001023  00000+0  22287-3 0  9996",
        "tle_line2": "2 35724  74.0327 292.9829 0058957  85.1473 275.6420 14.58210542876031"
      },
      "geometry": {
        "type": "Point",
        "coordinates": [
          144.91601071427888,
          -62.14499062895278
        ]
      }
    },
    {
      "type": "Feature",
      "properties": {
        "norad_id": 35759,
        "name": "COSMOS 2251 DEB",
        "group": "cosmos-2251-debris",
        "lat": -53.788148395246,
        "lon": 48.37991828257579,
        "alt_km": 679.1064913019036,
        "timestamp": "2025-12-18T07:01:54.986189+00:00",
        "meta_object_name": "COSMOS 2251 DEB",
        "meta_object_id": "1993-036ARD",
        "meta_epoch": "2025-12-17T08:38:24.236736",
        "meta_mean_motion": 14.6490617,
        "meta_eccentricity": 0.00772003,
        "meta_inclination": 74.0368,
        "meta_ra_of_asc_node": 207.1613,
        "meta_arg_of_pericenter": 324.2826,
        "meta_mean_anomaly": 35.319,
        "meta_ephemeris_type": 0,
        "meta_classification_type": "U",
        "meta_norad_cat_id": 35759,
        "meta_element_set_no": 999,
        "meta_rev_at_epoch": 66203,
        "meta_bstar": 0.00021011522,
        "meta_mean_motion_dot": 1.14e-05,
        "meta_mean_motion_ddot": 0,
        "tle_line1": "1 35759U 93036ARD 25351.36000274  .00001140  00000+0  21012-3 0  9992",
        "tle_line2": "2 35759  74.0368 207.1613 0077200 324.2826  35.3190 14.64906170662038"
      },
      "geometry": {
        "type": "Point",
        "coordinates": [
          48.37991828257579,
          -53.788148395246
        ]
      }
    }
  ]
}